0 SL-8 DEB
1 21406U 91009BV  13281.57467079  .00000055  00000-0  58333-3 0  1618
2 21406 073.9148 313.5367 0136572 243.4507 238.6133 12.31129638 10388
0 SL-8 DEB
1 21406U 91009BV  13284.16055631  .00000102  00000-0  96565-3 0  1626
2 21406 073.9144 310.1954 0136551 239.7845 179.3795 12.31130242 10703
0 SL-8 DEB
1 21406U 91009BV  13286.44870333  .00000076  00000-0  74905-3 0  1638
2 21406 073.9140 307.2385 0136495 236.5379 240.5606 12.31130579 10983
0 SL-8 DEB
1 21406U 91009BV  13288.49187538  .00000079  00000-0  77215-3 0  1644
2 21406 073.9138 304.5981 0136437 233.6352 296.0064 12.31131402 11236
0 SL-8 DEB
1 21406U 91009BV  13291.15183775  .00000044  00000-0  48652-3 0  1656
2 21406 073.9139 301.1604 0136348 229.8416 205.1216 12.31131563 11565
0 SL-8 DEB
1 21406U 91009BV  13293.44848264  .00000069  00000-0  69252-3 0  1668
2 21406 073.9141 298.1924 0136265 226.5500 304.0119 12.31132143 11841
0 SL-8 DEB
1 21406U 91009BV  13295.47966111  .00000107  00000-0  99954-3 0  1671
2 21406 073.9140 295.5677 0136096 223.6769 306.3020 12.31132104 12094
